FLOCK 4G-3              
1 62639U 25009AG  26068.80174065  .00011494  00000+0  43389-3 0  9993
2 62639  97.4062 151.4068 0001320 293.2042  66.9058 15.27179310 63727
STARLINK-33615          
1 63426U 25065AD  26068.80527988  .00024702  00000+0  90473-3 0  9998
2 63426  43.0001 106.7116 0001797 268.8354  91.2292 15.27559051 52858
