[{"OBJECT_NAME":"FLOCK 4G-3","OBJECT_ID":"2025-009AG","EPOCH":"2026-03-09T19:14:30.392160","MEAN_MOTION":15.2717931,"ECCENTRICITY":0.00013196,"INCLINATION":97.4062,"RA_OF_ASC_NODE":151.4068,"ARG_OF_PERICENTER":293.2042,"MEAN_ANOMALY":66.9058,"EPHEMERIS_TYPE":0,"CLASSIFICATION_TYPE":"U","NORAD_CAT_ID":62639,"ELEMENT_SET_NO":999,"REV_AT_EPOCH":6372,"BSTAR":0.0004338875,"MEAN_MOTION_DOT":0.00011494,"MEAN_MOTION_DDOT":0},{"OBJECT_NAME":"STARLINK-33615","OBJECT_ID":"2025-065AD","EPOCH":"2026-03-09T19:19:36.183360","MEAN_MOTION":15.27559051,"ECCENTRICITY":0.00017969,"INCLINATION":43.0001,"RA_OF_ASC_NODE":106.7116,"ARG_OF_PERICENTER":268.8354,"MEAN_ANOMALY":91.2292,"EPHEMERIS_TYPE":0,"CLASSIFICATION_TYPE":"U","NORAD_CAT_ID":63426,"ELEMENT_SET_NO":999,"REV_AT_EPOCH":5285,"BSTAR":0.00090472703,"MEAN_MOTION_DOT":0.00024702,"MEAN_MOTION_DDOT":0}]
